M2 PATHFINDER           
1 45727U 20037E   26201.49532261  .00001249  00000+0  92944-4 0  9997
2 45727  97.8142  33.1041 0012419  45.5834 314.6406 15.04802029330502
NETSAT-4                
1 46504U 20068U   26201.94596087  .00012946  00000+0  27756-3 0  9995
2 46504  97.8613 212.9274 0005462 173.3586 186.7734 15.44880606320982
NETSAT-3                
1 46505U 20068V   26201.84797783  .00013357  00000+0  29764-3 0  9999
2 46505  97.8664 210.9971 0004509 188.2778 171.8395 15.43731653320872
NETSAT-1                
1 46506U 20068W   26201.90267433  .00008939  00000+0  26308-3 0  9992
2 46506  97.8764 204.9804 0002826 229.4867 130.6129 15.35327383320475
NETSAT-2                
1 46507U 20068X   26201.67715452  .00014685  00000+0  28950-3 0  9996
2 46507  97.8624 212.6613 0002956 186.4514 173.6697 15.47316549320911
GREENCUBE (IO-117)      
1 53109U 22080E   26201.17921782 -.00000003  00000+0  00000+0 0  9990
2 53109  70.1400 286.7734 0009088 282.4177  77.5466  6.42583323 94188
SITRO-AIS 5 (KATYS)     
1 57176U 23091L   26201.88633178  .00007812  00000+0  27016-3 0  9992
2 57176  97.5038 266.1200 0010057 351.7583   8.3491 15.30139364169491
SITRO-AIS 6 (CHIRKIN)   
1 57192U 23091AC  26201.94438617  .00006634  00000+0  25663-3 0  9995
2 57192  97.5046 265.1154 0010579 356.1607   3.9548 15.26500467169439
SITRO-AIS 8 (ANOKHIN)   
1 57193U 23091AD  26201.90824617  .00009731  00000+0  30787-3 0  9995
2 57193  97.5033 267.8716 0008929 346.4898  13.6103 15.32948648169618
SITRO-AIS 7 (FARTUSHNIY)
1 57194U 23091AE  26201.88904473  .00006193  00000+0  24213-3 0  9998
2 57194  97.5042 264.8668 0010546 357.6347   2.4840 15.26171747169416
SITRO-AIS 10 (BURDAEV)  
1 57199U 23091AK  26201.92415766  .00014428  00000+0  36628-3 0  9993
2 57199  97.5058 273.2997 0004465 315.1002  44.9882 15.39761367169950
SITRO-AIS 9 (SHCHUKIN)  
1 57201U 23091AM  26201.89660376  .00013754  00000+0  35527-3 0  9990
2 57201  97.5057 272.9741 0004731 316.0022  44.0846 15.39241451169930
SITRO-AIS 12 (SMIRENNIY)
1 57204U 23091AQ  26201.94579231  .00014419  00000+0  36872-3 0  9991
2 57204  97.5070 273.5131 0004345 307.2793  52.8056 15.39539816169964
SITRO-AIS 11 (SHEFFER)  
1 57208U 23091AU  26201.94964785  .00015095  00000+0  38027-3 0  9992
2 57208  97.5068 273.7855 0004275 306.5362  53.5489 15.39988119169980
SITRO-AIS 25            
1 59066U 24039R   26201.94130590  .00001848  00000+0  14558-3 0  9992
2 59066  95.3888 258.2870 0143279 209.2188 150.0970 14.93664398129767
SITRO-AIS 26            
1 59067U 24039S   26201.94734103  .00001795  00000+0  14218-3 0  9997
2 59067  95.3889 258.1818 0143620 209.8177 149.4810 14.93454767129755
SITRO-AIS 27            
1 59068U 24039T   26201.90806384  .00002379  00000+0  18577-3 0  9996
2 59068  95.3892 258.4424 0142734 208.4827 150.8548 14.93880428129771
SITRO-AIS 28            
1 59071U 24039U   26201.95172992  .00001968  00000+0  15408-3 0  9999
2 59071  95.3892 258.5215 0142619 208.1577 151.1886 14.93913998129784
GRBBETA                 
1 60237U 24128C   26201.93283102  .00002144  00000+0  15566-3 0  9990
2 60237  61.9890  97.8512 0036319 141.9797 218.3870 15.06833089111358
OOV-CUBE (TUBSAT-30)    
1 60240U 24128F   26201.92245923  .00001222  00000+0  10485-3 0  9993
2 60240  61.9942 107.9291 0040370 141.3117 219.0878 15.02888772111181
ROBUSTA-3A (MEDITERRAN*)
1 60243U 24128J   26201.93199713  .00005023  00000+0  29896-3 0  9991
2 60243  61.9861  88.8767 0037291 134.8632 225.5503 15.12035835111526
LASARSAT                
1 62391U 24247Q   26201.02976853  .00020910  00000+0  39313-3 0  9994
2 62391  44.9739  77.3825 0008052 196.4765 163.5865 15.48248607 88403
CROCUBE                 
1 62394U 24247T   26200.91992558  .00025213  00000+0  43748-3 0  9992
2 62394  44.9711  74.7596 0008304 202.1601 157.8933 15.50428783 88428
FORESAIL-1 PRIME        
1 66778U 25276DS  26201.92551792  .00003025  00000+0  14793-3 0  9993
2 66778  97.4183 274.5823 0002411  30.6259 329.5116 15.18968100 35523
KNACKSAT-2              
1 67683U 98067XZ  26201.50289186  .00036378  00000+0  39993-3 0  9992
2 67683  51.6270 126.5287 0007981 346.1806  13.8969 15.62776530 25484
